{
  "type": "FeatureCollection",
  "name": "Rakennukset_alue.746037",
  "crs": {
    "type": "name",
    "properties": {
      "name": "urn:ogc:def:crs:EPSG::3067"
    }
  },
  "features": [
    {
      "type": "Feature",
      "id": "Rakennukset_alue.746037",
      "properties": {
        "id": 746037,
        "ratu": 3082,
        "vtj_prt": "1032092920",
        "tyyppi": "Asuinrakennus",
        "tila": "voimassa",
        "katunimi_suomi": "Pohjoinen Hesperiankatu",
        "osoitenumero": "3",
        "postinumero": "00260",
        "datanomistaja": "Helsinki/Kami",
        "_lahde": "Helsingin avoin WFS, EPSG:3067",
        "_huomio": "Esimerkkiaineisto. Metrit ovat tämän WFS-kohteen virallista geometriaa."
      },
      "geometry": {
        "type": "Polygon",
        "coordinates": [
          [
            [
              385083.84750467,
              6673033.28197319
            ],
            [
              385081.0072926,
              6673032.69807469
            ],
            [
              385080.99564244,
              6673032.33004648
            ],
            [
              385080.1761032,
              6673032.13992847
            ],
            [
              385079.90254941,
              6673031.52607917
            ],
            [
              385078.41061323,
              6673032.18281467
            ],
            [
              385078.74417182,
              6673033.08691037
            ],
            [
              385078.71245629,
              6673033.29131607
            ],
            [
              385076.5204307,
              6673037.14596195
            ],
            [
              385077.01452625,
              6673037.4987735
            ],
            [
              385072.41773611,
              6673045.62430097
            ],
            [
              385057.6689045,
              6673038.05807663
            ],
            [
              385061.95854804,
              6673030.50437844
            ],
            [
              385061.7226826,
              6673029.01169385
            ],
            [
              385062.57935787,
              6673027.56192564
            ],
            [
              385063.84836608,
              6673027.17660244
            ],
            [
              385067.83547802,
              6673020.15558557
            ],
            [
              385069.02448147,
              6673020.7148939
            ],
            [
              385069.66356879,
              6673016.93630331
            ],
            [
              385074.25795847,
              6673017.81703333
            ],
            [
              385075.65864692,
              6673017.05043757
            ],
            [
              385077.28176144,
              6673017.32963495
            ],
            [
              385078.27617495,
              6673018.58729127
            ],
            [
              385085.98362555,
              6673020.06475809
            ],
            [
              385087.52530653,
              6673019.29359067
            ],
            [
              385089.18485652,
              6673019.52087297
            ],
            [
              385090.15476231,
              6673020.86429048
            ],
            [
              385094.55809738,
              6673021.70829935
            ],
            [
              385091.52861295,
              6673037.64697371
            ],
            [
              385086.35670871,
              6673036.67091593
            ],
            [
              385086.48589902,
              6673035.93013954
            ],
            [
              385084.6817387,
              6673035.555005
            ],
            [
              385084.52704884,
              6673035.42181453
            ],
            [
              385084.32129954,
              6673035.20106223
            ],
            [
              385084.14612441,
              6673034.95534283
            ],
            [
              385084.00452074,
              6673034.68886064
            ],
            [
              385083.9424538,
              6673034.53672917
            ],
            [
              385083.89891143,
              6673034.40617526
            ],
            [
              385083.83110346,
              6673034.11212351
            ],
            [
              385083.80225705,
              6673033.81173669
            ],
            [
              385083.81286577,
              6673033.51015452
            ],
            [
              385083.84750467,
              6673033.28197319
            ]
          ]
        ]
      }
    }
  ]
}